CCSDS_OMM_VERS = 2.0
CREATION_DATE  = 
ORIGINATOR     = 

OBJECT_NAME    = SL-14 R/B
OBJECT_ID      = 1987-055B
CENTER_NAME    = EARTH
REF_FRAME      = TEME
TIME_SYSTEM    = UTC
MEAN_ELEMENT_THEORY = SGP/SGP4

EPOCH          = 2025-12-04T07:14:42.971136
MEAN_MOTION    = 14.85507916
ECCENTRICITY   = .00199557
INCLINATION    = 82.5000
RA_OF_ASC_NODE = 78.9398
ARG_OF_PERICENTER = 332.6762
MEAN_ANOMALY   = 27.3402

EPHEMERIS_TYPE = 0
CLASSIFICATION_TYPE = U
NORAD_CAT_ID   = 18153
ELEMENT_SET_NO = 999
REV_AT_EPOCH   = 5577
BSTAR          = .11694178E-3
MEAN_MOTION_DOT = .1036E-4
MEAN_MOTION_DDOT = 0

CCSDS_OMM_VERS = 2.0
CREATION_DATE  = 
ORIGINATOR     = 

OBJECT_NAME    = COSMOS 1867
OBJECT_ID      = 1987-060A
CENTER_NAME    = EARTH
REF_FRAME      = TEME
TIME_SYSTEM    = UTC
MEAN_ELEMENT_THEORY = SGP/SGP4

EPOCH          = 2025-12-04T00:14:05.609760
MEAN_MOTION    = 14.31483928
ECCENTRICITY   = .00136261
INCLINATION    = 65.0097
RA_OF_ASC_NODE = 214.6499
ARG_OF_PERICENTER = 270.2227
MEAN_ANOMALY   = 89.7296

EPHEMERIS_TYPE = 0
CLASSIFICATION_TYPE = U
NORAD_CAT_ID   = 18187
ELEMENT_SET_NO = 999
REV_AT_EPOCH   = 624
BSTAR          = .54709578E-4
MEAN_MOTION_DOT = .45E-6
MEAN_MOTION_DDOT = 0

CCSDS_OMM_VERS = 2.0
CREATION_DATE  = 
ORIGINATOR     = 

OBJECT_NAME    = SL-14 R/B
OBJECT_ID      = 1988-001B
CENTER_NAME    = EARTH
REF_FRAME      = TEME
TIME_SYSTEM    = UTC
MEAN_ELEMENT_THEORY = SGP/SGP4

EPOCH          = 2025-12-04T06:58:52.902048
MEAN_MOTION    = 14.85410138
ECCENTRICITY   = .00177066
INCLINATION    = 82.5126
RA_OF_ASC_NODE = 285.0943
ARG_OF_PERICENTER = 188.9322
MEAN_ANOMALY   = 171.1582

EPHEMERIS_TYPE = 0
CLASSIFICATION_TYPE = U
NORAD_CAT_ID   = 18749
ELEMENT_SET_NO = 999
REV_AT_EPOCH   = 2786
BSTAR          = .11461969E-3
MEAN_MOTION_DOT = .1013E-4
MEAN_MOTION_DDOT = 0

CCSDS_OMM_VERS = 2.0
CREATION_DATE  = 
ORIGINATOR     = 

OBJECT_NAME    = COSMOS 1933
OBJECT_ID      = 1988-020A
CENTER_NAME    = EARTH
REF_FRAME      = TEME
TIME_SYSTEM    = UTC
MEAN_ELEMENT_THEORY = SGP/SGP4

EPOCH          = 2025-12-04T02:41:37.203360
MEAN_MOTION    = 15.16996558
ECCENTRICITY   = .00051157
INCLINATION    = 82.5126
RA_OF_ASC_NODE = 345.4036
ARG_OF_PERICENTER = 150.1437
MEAN_ANOMALY   = 210.0089

EPHEMERIS_TYPE = 0
CLASSIFICATION_TYPE = U
NORAD_CAT_ID   = 18958
ELEMENT_SET_NO = 999
REV_AT_EPOCH   = 3573
BSTAR          = .41851714E-3
MEAN_MOTION_DOT = .83E-4
MEAN_MOTION_DDOT = 0

CCSDS_OMM_VERS = 2.0
CREATION_DATE  = 
ORIGINATOR     = 

OBJECT_NAME    = SL-3 R/B
OBJECT_ID      = 1988-032B
CENTER_NAME    = EARTH
REF_FRAME      = TEME
TIME_SYSTEM    = UTC
MEAN_ELEMENT_THEORY = SGP/SGP4

EPOCH          = 2025-12-04T05:31:18.300288
MEAN_MOTION    = 15.18607040
ECCENTRICITY   = .0025812
INCLINATION    = 97.5065
RA_OF_ASC_NODE = 317.0106
ARG_OF_PERICENTER = 203.0827
MEAN_ANOMALY   = 156.9250

EPHEMERIS_TYPE = 0
CLASSIFICATION_TYPE = U
NORAD_CAT_ID   = 19046
ELEMENT_SET_NO = 999
REV_AT_EPOCH   = 3761
BSTAR          = .55322155E-3
MEAN_MOTION_DOT = .11485E-3
MEAN_MOTION_DDOT = 0

CCSDS_OMM_VERS = 2.0
CREATION_DATE  = 
ORIGINATOR     = 

OBJECT_NAME    = SL-16 R/B
OBJECT_ID      = 1988-039B
CENTER_NAME    = EARTH
REF_FRAME      = TEME
TIME_SYSTEM    = UTC
MEAN_ELEMENT_THEORY = SGP/SGP4

EPOCH          = 2025-12-04T05:18:03.128256
MEAN_MOTION    = 14.19594111
ECCENTRICITY   = .00199877
INCLINATION    = 71.0149
RA_OF_ASC_NODE = 270.4100
ARG_OF_PERICENTER = 130.6813
MEAN_ANOMALY   = 229.6053

EPHEMERIS_TYPE = 0
CLASSIFICATION_TYPE = U
NORAD_CAT_ID   = 19120
ELEMENT_SET_NO = 999
REV_AT_EPOCH   = 94483
BSTAR          = .11502955E-3
MEAN_MOTION_DOT = .195E-5
MEAN_MOTION_DDOT = 0

CCSDS_OMM_VERS = 2.0
CREATION_DATE  = 
ORIGINATOR     = 

OBJECT_NAME    = COSMOS 1953
OBJECT_ID      = 1988-050A
CENTER_NAME    = EARTH
REF_FRAME      = TEME
TIME_SYSTEM    = UTC
MEAN_ELEMENT_THEORY = SGP/SGP4

EPOCH          = 2025-12-04T06:00:22.292064
MEAN_MOTION    = 15.26783196
ECCENTRICITY   = .0013811
INCLINATION    = 82.5101
RA_OF_ASC_NODE = 254.0976
ARG_OF_PERICENTER = 97.1127
MEAN_ANOMALY   = 263.1683

EPHEMERIS_TYPE = 0
CLASSIFICATION_TYPE = U
NORAD_CAT_ID   = 19210
ELEMENT_SET_NO = 999
REV_AT_EPOCH   = 2321
BSTAR          = .49976574E-3
MEAN_MOTION_DOT = .13229E-3
MEAN_MOTION_DDOT = 0

CCSDS_OMM_VERS = 2.0
CREATION_DATE  = 
ORIGINATOR     = 

OBJECT_NAME    = SL-8 R/B
OBJECT_ID      = 1988-053B
CENTER_NAME    = EARTH
REF_FRAME      = TEME
TIME_SYSTEM    = UTC
MEAN_ELEMENT_THEORY = SGP/SGP4

EPOCH          = 2025-12-04T08:20:23.443584
MEAN_MOTION    = 14.38851185
ECCENTRICITY   = .00191878
INCLINATION    = 74.0475
RA_OF_ASC_NODE = 288.1867
ARG_OF_PERICENTER = 135.3856
MEAN_ANOMALY   = 345.6644

EPHEMERIS_TYPE = 0
CLASSIFICATION_TYPE = U
NORAD_CAT_ID   = 19257
ELEMENT_SET_NO = 999
REV_AT_EPOCH   = 96288
BSTAR          = .17593356E-3
MEAN_MOTION_DOT = .516E-5
MEAN_MOTION_DDOT = 0

CCSDS_OMM_VERS = 2.0
CREATION_DATE  = 
ORIGINATOR     = 

OBJECT_NAME    = COSMOS 1975
OBJECT_ID      = 1988-093A
CENTER_NAME    = EARTH
REF_FRAME      = TEME
TIME_SYSTEM    = UTC
MEAN_ELEMENT_THEORY = SGP/SGP4

EPOCH          = 2025-12-04T03:03:28.434816
MEAN_MOTION    = 15.26277726
ECCENTRICITY   = .00122787
INCLINATION    = 82.5215
RA_OF_ASC_NODE = 213.4486
ARG_OF_PERICENTER = 139.7394
MEAN_ANOMALY   = 220.4756

EPHEMERIS_TYPE = 0
CLASSIFICATION_TYPE = U
NORAD_CAT_ID   = 19573
ELEMENT_SET_NO = 999
REV_AT_EPOCH   = 482
BSTAR          = .64964915E-3
MEAN_MOTION_DOT = .16924E-3
MEAN_MOTION_DDOT = 0

CCSDS_OMM_VERS = 2.0
CREATION_DATE  = 
ORIGINATOR     = 

OBJECT_NAME    = SL-14 R/B
OBJECT_ID      = 1988-093B
CENTER_NAME    = EARTH
REF_FRAME      = TEME
TIME_SYSTEM    = UTC
MEAN_ELEMENT_THEORY = SGP/SGP4

EPOCH          = 2025-12-04T04:11:07.183680
MEAN_MOTION    = 14.85534901
ECCENTRICITY   = .00206921
INCLINATION    = 82.5296
RA_OF_ASC_NODE = 131.7051
ARG_OF_PERICENTER = 358.3112
MEAN_ANOMALY   = 174.9870

EPHEMERIS_TYPE = 0
CLASSIFICATION_TYPE = U
NORAD_CAT_ID   = 19574
ELEMENT_SET_NO = 999
REV_AT_EPOCH   = 98685
BSTAR          = .10990407E-3
MEAN_MOTION_DOT = .977E-5
MEAN_MOTION_DDOT = 0

CCSDS_OMM_VERS = 2.0
CREATION_DATE  = 
ORIGINATOR     = 

OBJECT_NAME    = SL-16 R/B
OBJECT_ID      = 1988-102B
CENTER_NAME    = EARTH
REF_FRAME      = TEME
TIME_SYSTEM    = UTC
MEAN_ELEMENT_THEORY = SGP/SGP4

EPOCH          = 2025-12-04T06:21:09.439776
MEAN_MOTION    = 14.16137387
ECCENTRICITY   = .00133674
INCLINATION    = 71.0002
RA_OF_ASC_NODE = 352.2761
ARG_OF_PERICENTER = 166.0836
MEAN_ANOMALY   = 194.0658

EPHEMERIS_TYPE = 0
CLASSIFICATION_TYPE = U
NORAD_CAT_ID   = 19650
ELEMENT_SET_NO = 999
REV_AT_EPOCH   = 91338
BSTAR          = -.31122071E-4
MEAN_MOTION_DOT = -.109E-5
MEAN_MOTION_DDOT = 0

CCSDS_OMM_VERS = 2.0
CREATION_DATE  = 
ORIGINATOR     = 

OBJECT_NAME    = INTERCOSMOS 24
OBJECT_ID      = 1989-080A
CENTER_NAME    = EARTH
REF_FRAME      = TEME
TIME_SYSTEM    = UTC
MEAN_ELEMENT_THEORY = SGP/SGP4

EPOCH          = 2025-12-04T00:06:53.652096
MEAN_MOTION    = 12.59415029
ECCENTRICITY   = .11887325
INCLINATION    = 82.6045
RA_OF_ASC_NODE = 166.6322
ARG_OF_PERICENTER = 154.7768
MEAN_ANOMALY   = 211.6601

EPHEMERIS_TYPE = 0
CLASSIFICATION_TYPE = U
NORAD_CAT_ID   = 20261
ELEMENT_SET_NO = 999
REV_AT_EPOCH   = 65475
BSTAR          = .40790293E-3
MEAN_MOTION_DOT = .1403E-4
MEAN_MOTION_DDOT = 0

CCSDS_OMM_VERS = 2.0
CREATION_DATE  = 
ORIGINATOR     = 

OBJECT_NAME    = SL-14 R/B
OBJECT_ID      = 1989-080C
CENTER_NAME    = EARTH
REF_FRAME      = TEME
TIME_SYSTEM    = UTC
MEAN_ELEMENT_THEORY = SGP/SGP4

EPOCH          = 2025-12-04T04:24:25.722720
MEAN_MOTION    = 12.50403142
ECCENTRICITY   = .12307897
INCLINATION    = 82.5937
RA_OF_ASC_NODE = 234.5120
ARG_OF_PERICENTER = 43.1383
MEAN_ANOMALY   = 325.9762

EPHEMERIS_TYPE = 0
CLASSIFICATION_TYPE = U
NORAD_CAT_ID   = 20262
ELEMENT_SET_NO = 999
REV_AT_EPOCH   = 64821
BSTAR          = .22844615E-3
MEAN_MOTION_DOT = .78E-5
MEAN_MOTION_DDOT = 0

CCSDS_OMM_VERS = 2.0
CREATION_DATE  = 
ORIGINATOR     = 

OBJECT_NAME    = DELTA 1 R/B
OBJECT_ID      = 1989-089B
CENTER_NAME    = EARTH
REF_FRAME      = TEME
TIME_SYSTEM    = UTC
MEAN_ELEMENT_THEORY = SGP/SGP4

EPOCH          = 2025-12-04T05:22:50.892960
MEAN_MOTION    = 14.50561959
ECCENTRICITY   = .00705332
INCLINATION    = 97.0757
RA_OF_ASC_NODE = 195.8110
ARG_OF_PERICENTER = 64.7273
MEAN_ANOMALY   = 296.1212

EPHEMERIS_TYPE = 0
CLASSIFICATION_TYPE = U
NORAD_CAT_ID   = 20323
ELEMENT_SET_NO = 999
REV_AT_EPOCH   = 88189
BSTAR          = .19067185E-3
MEAN_MOTION_DOT = .736E-5
MEAN_MOTION_DDOT = 0

CCSDS_OMM_VERS = 2.0
CREATION_DATE  = 
ORIGINATOR     = 

OBJECT_NAME    = ARIANE 40 R/B
OBJECT_ID      = 1990-005H
CENTER_NAME    = EARTH
REF_FRAME      = TEME
TIME_SYSTEM    = UTC
MEAN_ELEMENT_THEORY = SGP/SGP4

EPOCH          = 2025-12-04T04:35:34.381824
MEAN_MOTION    = 14.39788931
ECCENTRICITY   = .00110392
INCLINATION    = 98.3256
RA_OF_ASC_NODE = 36.6105
ARG_OF_PERICENTER = 129.1224
MEAN_ANOMALY   = 231.0948

EPHEMERIS_TYPE = 0
CLASSIFICATION_TYPE = U
NORAD_CAT_ID   = 20443
ELEMENT_SET_NO = 999
REV_AT_EPOCH   = 87906
BSTAR          = .23631603E-3
MEAN_MOTION_DOT = .699E-5
MEAN_MOTION_DDOT = 0

